{
  "type": "FeatureCollection",
  "features": [
    {
      "type": "Feature",
      "properties": {
        "norad_id": 66583,
        "name": "STARLINK-35941",
        "group": "last-30-days",
        "lat": -26.407037018537444,
        "lon": -61.834492640251014,
        "alt_km": 417.52516036550423,
        "timestamp": "2025-12-18T17:50:13.699191+00:00",
        "meta_object_name": "STARLINK-35941",
        "meta_object_id": "2025-268AC",
        "meta_epoch": "2025-12-18T07:36:53.504352",
        "meta_mean_motion": 15.50641573,
        "meta_eccentricity": 6.686e-05,
        "meta_inclination": 42.9979,
        "meta_ra_of_asc_node": 88.4554,
        "meta_arg_of_pericenter": 67.7089,
        "meta_mean_anomaly": 292.3842,
        "meta_ephemeris_type": 0,
        "meta_classification_type": "U",
        "meta_norad_cat_id": 66583,
        "meta_element_set_no": 999,
        "meta_rev_at_epoch": 549,
        "meta_bstar": 0.0011468369,
        "meta_mean_motion_dot": 0.00067672,
        "meta_mean_motion_ddot": 0,
        "tle_line1": "1 66583U 25268AC  25352.31728593  .00067672  00000+0  11468-2 0  9995",
        "tle_line2": "2 66583  42.9979  88.4554 0000668  67.7089 292.3842 15.50641573  5496"
      },
      "geometry": {
        "type": "Point",
        "coordinates": [
          -61.834492640251014,
          -26.407037018537444
        ]
      }
    },
    {
      "type": "Feature",
      "properties": {
        "norad_id": 66584,
        "name": "STARLINK-35939",
        "group": "last-30-days",
        "lat": -27.510180469836182,
        "lon": -60.05980993652719,
        "alt_km": 416.5038286792196,
        "timestamp": "2025-12-18T17:50:13.699201+00:00",
        "meta_object_name": "STARLINK-35939",
        "meta_object_id": "2025-268AD",
        "meta_epoch": "2025-12-18T07:36:23.720544",
        "meta_mean_motion": 15.50638957,
        "meta_eccentricity": 0.00019372,
        "meta_inclination": 42.9936,
        "meta_ra_of_asc_node": 88.4476,
        "meta_arg_of_pericenter": 162.9241,
        "meta_mean_anomaly": 197.1685,
        "meta_ephemeris_type": 0,
        "meta_classification_type": "U",
        "meta_norad_cat_id": 66584,
        "meta_element_set_no": 999,
        "meta_rev_at_epoch": 549,
        "meta_bstar": 0.001153067,
        "meta_mean_motion_dot": 0.00068041,
        "meta_mean_motion_ddot": 0,
        "tle_line1": "1 66584U 25268AD  25352.31694121  .00068041  00000+0  11531-2 0  9997",
        "tle_line2": "2 66584  42.9936  88.4476 0001937 162.9241 197.1685 15.50638957  5490"
      },
      "geometry": {
        "type": "Point",
        "coordinates": [
          -60.05980993652719,
          -27.510180469836182
        ]
      }
    },
    {
      "type": "Feature",
      "properties": {
        "norad_id": 66585,
        "name": "STARLINK-35963",
        "group": "last-30-days",
        "lat": -28.58101508031552,
        "lon": -58.265091014506666,
        "alt_km": 416.63424538644995,
        "timestamp": "2025-12-18T17:50:13.699212+00:00",
        "meta_object_name": "STARLINK-35963",
        "meta_object_id": "2025-268AE",
        "meta_epoch": "2025-12-18T07:35:54.039552",
        "meta_mean_motion": 15.50640131,
        "meta_eccentricity": 0.00016907,
        "meta_inclination": 42.9937,
        "meta_ra_of_asc_node": 88.4454,
        "meta_arg_of_pericenter": 166.7259,
        "meta_mean_anomaly": 193.3646,
        "meta_ephemeris_type": 0,
        "meta_classification_type": "U",
        "meta_norad_cat_id": 66585,
        "meta_element_set_no": 999,
        "meta_rev_at_epoch": 549,
        "meta_bstar": 0.001151766,
        "meta_mean_motion_dot": 0.00067965,
        "meta_mean_motion_ddot": 0,
        "tle_line1": "1 66585U 25268AE  25352.31659768  .00067965  00000+0  11518-2 0  9995",
        "tle_line2": "2 66585  42.9937  88.4454 0001690 166.7259 193.3646 15.50640131  5497"
      },
      "geometry": {
        "type": "Point",
        "coordinates": [
          -58.265091014506666,
          -28.58101508031552
        ]
      }
    },
    {
      "type": "Feature",
      "properties": {
        "norad_id": 66586,
        "name": "TJS-21",
        "group": "last-30-days",
        "lat": 33.06502594030187,
        "lon": -179.14500162846286,
        "alt_km": 18134.353702375236,
        "timestamp": "2025-12-18T17:50:13.699225+00:00",
        "meta_object_name": "TJS-21",
        "meta_object_id": "2025-269A",
        "meta_epoch": "2025-12-15T05:12:47.484864",
        "meta_mean_motion": 2.00575027,
        "meta_eccentricity": 0.68062948,
        "meta_inclination": 63.2717,
        "meta_ra_of_asc_node": 162.0883,
        "meta_arg_of_pericenter": 269.7594,
        "meta_mean_anomaly": 18.6638,
        "meta_ephemeris_type": 0,
        "meta_classification_type": "U",
        "meta_norad_cat_id": 66586,
        "meta_element_set_no": 999,
        "meta_rev_at_epoch": 48,
        "meta_bstar": -0.049388688,
        "meta_mean_motion_dot": 1.099e-05,
        "meta_mean_motion_ddot": 0,
        "tle_line1": "1 66586U 25269A   25349.21721626  .00001099  00000+0 -49389-1 0  9998",
        "tle_line2": "2 66586  63.2717 162.0883 6806294 269.7594  18.6638  2.00575027   486"
      },
      "geometry": {
        "type": "Point",
        "coordinates": [
          -179.14500162846286,
          33.06502594030187
        ]
      }
    },
    {
      "type": "Feature",
      "properties": {
        "norad_id": 66587,
        "name": "CZ-3B R/B",
        "group": "last-30-days",
        "lat": 20.965489193101554,
        "lon": -173.94807083305693,
        "alt_km": 30978.21226255607,
        "timestamp": "2025-12-18T17:50:13.699240+00:00",
        "meta_object_name": "CZ-3B R/B",
        "meta_object_id": "2025-269B",
        "meta_epoch": "2025-12-17T04:50:14.865216",
        "meta_mean_motion": 2.03937792,
        "meta_eccentricity": 0.75168551,
        "meta_inclination": 51.3435,
        "meta_ra_of_asc_node": 168.6023,
        "meta_arg_of_pericenter": 229.5038,
        "meta_mean_anomaly": 36.3416,
        "meta_ephemeris_type": 0,
        "meta_classification_type": "U",
        "meta_norad_cat_id": 66587,
        "meta_element_set_no": 999,
        "meta_rev_at_epoch": 54,
        "meta_bstar": 0.00055683527,
        "meta_mean_motion_dot": 0.00072738,
        "meta_mean_motion_ddot": -9.18653e-07,
        "tle_line1": "1 66587U 25269B   25351.20156094  .00072738 -91865-6  55684-3 0  9993",
        "tle_line2": "2 66587  51.3435 168.6023 7516855 229.5038  36.3416  2.03937792   541"
      },
      "geometry": {
        "type": "Point",
        "coordinates": [
          -173.94807083305693,
          20.965489193101554
        ]
      }
    },
    {
      "type": "Feature",
      "properties": {
        "norad_id": 66588,
        "name": "STARLINK-36076",
        "group": "last-30-days",
        "lat": -31.619959522476073,
        "lon": 19.539690019763057,
        "alt_km": 445.45791479586205,
        "timestamp": "2025-12-18T17:50:13.699252+00:00",
        "meta_object_name": "STARLINK-36076",
        "meta_object_id": "2025-270A",
        "meta_epoch": "2025-12-18T04:23:44.647296",
        "meta_mean_motion": 15.40722227,
        "meta_eccentricity": 0.00019823,
        "meta_inclination": 42.9989,
        "meta_ra_of_asc_node": 161.4122,
        "meta_arg_of_pericenter": 254.1904,
        "meta_mean_anomaly": 105.8735,
        "meta_ephemeris_type": 0,
        "meta_classification_type": "U",
        "meta_norad_cat_id": 66588,
        "meta_element_set_no": 999,
        "meta_rev_at_epoch": 518,
        "meta_bstar": 0.00096199397,
        "meta_mean_motion_dot": 0.00040123,
        "meta_mean_motion_ddot": 0,
        "tle_line1": "1 66588U 25270A   25352.18315564  .00040123  00000+0  96199-3 0  9995",
        "tle_line2": "2 66588  42.9989 161.4122 0001982 254.1904 105.8735 15.40722227  5183"
      },
      "geometry": {
        "type": "Point",
        "coordinates": [
          19.539690019763057,
          -31.619959522476073
        ]
      }
    },
    {
      "type": "Feature",
      "properties": {
        "norad_id": 66589,
        "name": "STARLINK-35447",
        "group": "last-30-days",
        "lat": -20.23799571284644,
        "lon": 134.63489782867404,
        "alt_km": 445.1924616392862,
        "timestamp": "2025-12-18T17:50:13.699265+00:00",
        "meta_object_name": "STARLINK-35447",
        "meta_object_id": "2025-270B",
        "meta_epoch": "2025-12-18T06:00:02.999808",
        "meta_mean_motion": 15.40691721,
        "meta_eccentricity": 0.00015225,
        "meta_inclination": 42.9993,
        "meta_ra_of_asc_node": 160.7843,
        "meta_arg_of_pericenter": 285.9899,
        "meta_mean_anomaly": 184.9004,
        "meta_ephemeris_type": 0,
        "meta_classification_type": "U",
        "meta_norad_cat_id": 66589,
        "meta_element_set_no": 999,
        "meta_rev_at_epoch": 539,
        "meta_bstar": 0.00048669877,
        "meta_mean_motion_dot": 0.00020075,
        "meta_mean_motion_ddot": 0,
        "tle_line1": "1 66589U 25270B   25352.25003472  .00020075  00000+0  48670-3 0  9991",
        "tle_line2": "2 66589  42.9993 160.7843 0001522 285.9899 184.9004 15.40691721  5390"
      },
      "geometry": {
        "type": "Point",
        "coordinates": [
          134.63489782867404,
          -20.23799571284644
        ]
      }
    }
  ]
}